{
  "norad_id": 43807,
  "name": "EUCROPIS",
  "history": [
    {
      "epoch": "2026-03-28T21:11:31.015968Z",
      "apogee_km": 511.1798387241852,
      "perigee_km": 504.2445491330427,
      "latitude_deg": 3.598505993478856e-05,
      "longitude_deg": 0.7275037974092096,
      "height_km": 514.0505990386545,
      "semi_major_axis_km": 6885.849193928613,
      "eccentricity": 0.00050359,
      "inclination_deg": 97.4317,
      "raan_deg": 144.9038,
      "arg_perigee_deg": 200.5711,
      "mean_anomaly_deg": 159.5322,
      "mean_motion_rev_day": 15.19380336
    },
    {
      "epoch": "2026-03-29T03:30:51.613344Z",
      "apogee_km": 511.1846981227618,
      "perigee_km": 504.207971787785,
      "latitude_deg": 5.279429351115792e-05,
      "longitude_deg": -94.10877200965493,
      "height_km": 514.0717821371694,
      "semi_major_axis_km": 6885.833334955273,
      "eccentricity": 0.0005066,
      "inclination_deg": 97.4316,
      "raan_deg": 145.163,
      "arg_perigee_deg": 199.727,
      "mean_anomaly_deg": 160.377,
      "mean_motion_rev_day": 15.19385585
    },
    {
      "epoch": "2026-03-30T01:38:33Z",
      "apogee_km": 511.18284566262355,
      "perigee_km": 504.0796248664901,
      "latitude_deg": -4.623888574145305e-05,
      "longitude_deg": -66.03247441144131,
      "height_km": 514.1296842486665,
      "semi_major_axis_km": 6885.768235264557,
      "eccentricity": 0.00051579,
      "inclination_deg": 97.4313,
      "raan_deg": 146.0705,
      "arg_perigee_deg": 196.413,
      "mean_anomaly_deg": 163.6938,
      "mean_motion_rev_day": 15.19407132
    },
    {
      "epoch": "2026-03-30T09:32:43.262880Z",
      "apogee_km": 511.19440697743084,
      "perigee_km": 504.0304732599325,
      "latitude_deg": -5.5206653183025306e-05,
      "longitude_deg": 175.42430658260542,
      "height_km": 514.1611429108575,
      "semi_major_axis_km": 6885.749440118681,
      "eccentricity": 0.0005202,
      "inclination_deg": 97.4312,
      "raan_deg": 146.3946,
      "arg_perigee_deg": 195.1646,
      "mean_anomaly_deg": 164.9433,
      "mean_motion_rev_day": 15.19413353
    },
    {
      "epoch": "2026-03-30T17:26:53.405664Z",
      "apogee_km": 511.21328868532964,
      "perigee_km": 503.97225525712565,
      "latitude_deg": 2.222938760113417e-05,
      "longitude_deg": 56.88157813904683,
      "height_km": 514.1880388189626,
      "semi_major_axis_km": 6885.729771971228,
      "eccentricity": 0.0005258,
      "inclination_deg": 97.4312,
      "raan_deg": 146.7187,
      "arg_perigee_deg": 194.5855,
      "mean_anomaly_deg": 165.5229,
      "mean_motion_rev_day": 15.19419863
    },
    {
      "epoch": "2026-03-31T02:55:53.387616Z",
      "apogee_km": 511.20978018457845,
      "perigee_km": 503.9215393473223,
      "latitude_deg": -7.662921880251434e-05,
      "longitude_deg": -85.36899980596856,
      "height_km": 514.2030244409214,
      "semi_major_axis_km": 6885.702659765951,
      "eccentricity": 0.00052923,
      "inclination_deg": 97.431,
      "raan_deg": 147.1075,
      "arg_perigee_deg": 193.3237,
      "mean_anomaly_deg": 166.7858,
      "mean_motion_rev_day": 15.19428837
    },
    {
      "epoch": "2026-04-01T04:13:12.561312Z",
      "apogee_km": 511.22749263910555,
      "perigee_km": 503.79553677124386,
      "latitude_deg": 2.7829321421192434e-05,
      "longitude_deg": -104.70037064189837,
      "height_km": 514.2656715669392,
      "semi_major_axis_km": 6885.648514705174,
      "eccentricity": 0.00053967,
      "inclination_deg": 97.4307,
      "raan_deg": 148.1446,
      "arg_perigee_deg": 189.6683,
      "mean_anomaly_deg": 170.4449,
      "mean_motion_rev_day": 15.19446759
    },
    {
      "epoch": "2026-04-02T14:59:29.359968Z",
      "apogee_km": 511.22552296185495,
      "perigee_km": 503.60280469042937,
      "latitude_deg": 2.4490624811638528e-05,
      "longitude_deg": 93.72762894099402,
      "height_km": 514.3066948826543,
      "semi_major_axis_km": 6885.551163826142,
      "eccentricity": 0.00055353,
      "inclination_deg": 97.4304,
      "raan_deg": 149.5706,
      "arg_perigee_deg": 183.9689,
      "mean_anomaly_deg": 176.1503,
      "mean_motion_rev_day": 15.19478983
    },
    {
      "epoch": "2026-04-02T21:18:48.420288Z",
      "apogee_km": 511.21341922527336,
      "perigee_km": 503.53992736720556,
      "latitude_deg": 4.479311991627274e-05,
      "longitude_deg": -1.1023252291070738,
      "height_km": 514.299030924351,
      "semi_major_axis_km": 6885.513673296239,
      "eccentricity": 0.00055722,
      "inclination_deg": 97.4304,
      "raan_deg": 149.8297,
      "arg_perigee_deg": 182.7941,
      "mean_anomaly_deg": 177.3264,
      "mean_motion_rev_day": 15.19491393
    },
    {
      "epoch": "2026-04-03T17:51:34.545312Z",
      "apogee_km": 511.20441424201,
      "perigee_km": 503.40458611060967,
      "latitude_deg": -2.2762952108616137e-05,
      "longitude_deg": 50.7043957284319,
      "height_km": 514.2942621731302,
      "semi_major_axis_km": 6885.441500176309,
      "eccentricity": 0.0005664,
      "inclination_deg": 97.43,
      "raan_deg": 150.6724,
      "arg_perigee_deg": 180.0435,
      "mean_anomaly_deg": 180.08,
      "mean_motion_rev_day": 15.19515284
    },
    {
      "epoch": "2026-04-04T03:20:32.294688Z",
      "apogee_km": 511.18874961179426,
      "perigee_km": 503.3360892819019,
      "latitude_deg": -1.983379144858018e-05,
      "longitude_deg": -91.53686818906625,
      "height_km": 514.2778696624011,
      "semi_major_axis_km": 6885.399419446848,
      "eccentricity": 0.00057024,
      "inclination_deg": 97.4298,
      "raan_deg": 151.0612,
      "arg_perigee_deg": 178.9953,
      "mean_anomaly_deg": 181.1294,
      "mean_motion_rev_day": 15.19529214
    },
    {
      "epoch": "2026-04-05T14:06:42.489792Z",
      "apogee_km": 511.20920220697826,
      "perigee_km": 503.1480124002592,
      "latitude_deg": -4.7450174116396554e-05,
      "longitude_deg": 106.91882135096292,
      "height_km": 514.2834641689417,
      "semi_major_axis_km": 6885.315607303619,
      "eccentricity": 0.00058539,
      "inclination_deg": 97.4292,
      "raan_deg": 152.4873,
      "arg_perigee_deg": 175.0677,
      "mean_anomaly_deg": 185.0616,
      "mean_motion_rev_day": 15.19556959
    },
    {
      "epoch": "2026-04-05T17:16:21.495936Z",
      "apogee_km": 511.2083800279306,
      "perigee_km": 503.1346672531099,
      "latitude_deg": 5.146393407922035e-05,
      "longitude_deg": 59.506071805614326,
      "height_km": 514.2804563769566,
      "semi_major_axis_km": 6885.30852364052,
      "eccentricity": 0.0005863,
      "inclination_deg": 97.4292,
      "raan_deg": 152.6169,
      "arg_perigee_deg": 174.7326,
      "mean_anomaly_deg": 185.3972,
      "mean_motion_rev_day": 15.19559304
    },
    {
      "epoch": "2026-04-06T02:45:18.395136Z",
      "apogee_km": 511.21371342392104,
      "perigee_km": 503.08590775549146,
      "latitude_deg": 0.00010400479466348047,
      "longitude_deg": -82.73154708188882,
      "height_km": 514.2775053056713,
      "semi_major_axis_km": 6885.286810589706,
      "eccentricity": 0.00059023,
      "inclination_deg": 97.4292,
      "raan_deg": 153.0058,
      "arg_perigee_deg": 173.6218,
      "mean_anomaly_deg": 186.5094,
      "mean_motion_rev_day": 15.19566492
    },
    {
      "epoch": "2026-04-07T10:21:46.882368Z",
      "apogee_km": 511.2258826456173,
      "perigee_km": 502.93236441617955,
      "latitude_deg": -1.772010722250569e-05,
      "longitude_deg": 163.14817757445778,
      "height_km": 514.2441263588765,
      "semi_major_axis_km": 6885.216123530899,
      "eccentricity": 0.00060227,
      "inclination_deg": 97.4292,
      "raan_deg": 154.3023,
      "arg_perigee_deg": 169.4542,
      "mean_anomaly_deg": 190.682,
      "mean_motion_rev_day": 15.19589893
    },
    {
      "epoch": "2026-04-08T10:04:07.232160Z",
      "apogee_km": 511.2552103992284,
      "perigee_km": 502.821008593598,
      "latitude_deg": 3.775226596925918e-05,
      "longitude_deg": 167.56212005591516,
      "height_km": 514.2131388353849,
      "semi_major_axis_km": 6885.175109496413,
      "eccentricity": 0.00061249,
      "inclination_deg": 97.4293,
      "raan_deg": 155.2746,
      "arg_perigee_deg": 165.7534,
      "mean_anomaly_deg": 194.3875,
      "mean_motion_rev_day": 15.19603471
    },
    {
      "epoch": "2026-04-09T20:50:11.671296Z",
      "apogee_km": 511.28813595841075,
      "perigee_km": 502.67347655922003,
      "latitude_deg": -4.345790498982696e-05,
      "longitude_deg": 6.041562963113329,
      "height_km": 514.1502935366653,
      "semi_major_axis_km": 6885.117806258815,
      "eccentricity": 0.0006256,
      "inclination_deg": 97.429,
      "raan_deg": 156.7004,
      "arg_perigee_deg": 161.4128,
      "mean_anomaly_deg": 198.7336,
      "mean_motion_rev_day": 15.19622442
    },
    {
      "epoch": "2026-04-10T03:09:28.671840Z",
      "apogee_km": 511.2842707998534,
      "perigee_km": 502.65282707948154,
      "latitude_deg": 8.013502794126555e-06,
      "longitude_deg": -88.77959023173199,
      "height_km": 514.1293069032732,
      "semi_major_axis_km": 6885.105548939668,
      "eccentricity": 0.00062682,
      "inclination_deg": 97.4289,
      "raan_deg": 156.9597,
      "arg_perigee_deg": 160.7353,
      "mean_anomaly_deg": 199.412,
      "mean_motion_rev_day": 15.196265
    }
  ]
}